COMMENT,ORIGINATOR,NORAD_CAT_ID,OBJECT_NAME,OBJECT_TYPE,CLASSIFICATION_TYPE,INTLDES,EPOCH,EPOCH_MICROSECONDS,MEAN_MOTION,ECCENTRICITY,INCLINATION,RA_OF_ASC_NODE,ARG_OF_PERICENTER,MEAN_ANOMALY,EPHEMERIS_TYPE,ELEMENT_SET_NO,REV_AT_EPOCH,BSTAR,MEAN_MOTION_DOT,MEAN_MOTION_DDOT,FILE,TLE_LINE0,TLE_LINE1,TLE_LINE2,OBJECT_ID,OBJECT_NUMBER,SEMIMAJOR_AXIS,PERIOD,APOGEE,PERIGEE,DECAYED,date
GENERATED VIA SPACETRACK.ORG API,18 SPCS,52180,SPACEBEE-134,PAYLOAD,U,22033Z,2023/3/4 17:25,965440,15.34237678,0.0007814,97.3546,146.6888,179.8877,180.2369,0,999,5136,0.001909,0.00063701,0,3851336,0 SPACEBEE-134,1 52180U 22033Z   23063.72593710  .00063701  00000-0  19090-2 0  9992,2 52180  97.3546 146.6888 0007814 179.8877 180.2369 15.34237678 51360,2022-033Z,52180,6841.323,93.858,468.534,457.842,1,
GENERATED VIA SPACETRACK.ORG API,18 SPCS,52180,SPACEBEE-134,PAYLOAD,U,22033Z,2023/3/4 17:25,965440,15.34237678,0.0007814,97.3546,146.6888,179.8877,180.2369,0,999,5138,0.001909,0.00063701,0,3851350,0 SPACEBEE-134,1 52180U 22033Z   23063.72593710  .00063701  00000-0  19090-2 0  9992,2 52180  97.3546 146.6888 0007814 179.8877 180.2369 15.34237678 51382,2022-033Z,52180,6841.323,93.858,468.534,457.842,1,
GENERATED VIA SPACETRACK.ORG API,18 SPCS,52180,SPACEBEE-134,PAYLOAD,U,22033Z,2023/3/5 4:22,860736,15.3430693,0.0007914,97.3546,147.143,179.1389,180.9869,0,999,5143,0.0021896,0.0007333,0,3851918,0 SPACEBEE-134,1 52180U 22033Z   23064.18247524  .00073330  00000-0  21896-2 0  9998,2 52180  97.3546 147.1430 0007914 179.1389 180.9869 15.34306930 51439,2022-033Z,52180,6841.117,93.853,468.396,457.568,1,
GENERATED VIA SPACETRACK.ORG API,18 SPCS,52180,SPACEBEE-134,PAYLOAD,U,22033Z,2023/3/5 4:22,860736,15.3430693,0.0007914,97.3546,147.143,179.1389,180.9869,0,999,5145,0.0021896,0.0007333,0,3851939,0 SPACEBEE-134,1 52180U 22033Z   23064.18247524  .00073330  00000-0  21896-2 0  9998,2 52180  97.3546 147.1430 0007914 179.1389 180.9869 15.34306930 51451,2022-033Z,52180,6841.117,93.853,468.396,457.568,1,
GENERATED VIA SPACETRACK.ORG API,18 SPCS,52180,SPACEBEE-134,PAYLOAD,U,22033Z,2023/3/5 18:27,207680,15.3439384,0.0007844,97.3547,147.7283,177.0062,183.1229,0,999,5154,0.0021788,0.00073166,0,3852256,0 SPACEBEE-134,1 52180U 22033Z   23064.76942370  .00073166  00000-0  21788-2 0  9990,2 52180  97.3547 147.7283 0007844 177.0062 183.1229 15.34393840 51542,2022-033Z,52180,6840.859,93.848,468.09,457.358,1,
GENERATED VIA SPACETRACK.ORG API,18 SPCS,52180,SPACEBEE-134,PAYLOAD,U,22033Z,2023/3/6 3:51,664896,15.34461691,0.000795,97.3552,148.1191,175.8481,184.2829,0,999,5158,0.0022642,0.00076232,0,3852821,0 SPACEBEE-134,1 52180U 22033Z   23065.16070214  .00076232  00000-0  22642-2 0  9991,2 52180  97.3552 148.1191 0007950 175.8481 184.2829 15.34461691 51582,2022-033Z,52180,6840.657,93.844,467.96,457.084,1,
GENERATED VIA SPACETRACK.ORG API,18 SPCS,52180,SPACEBEE-134,PAYLOAD,U,22033Z,2023/3/6 16:22,905888,15.34532902,0.0007878,97.3549,148.6396,173.7235,186.4108,0,999,5168,0.0019509,0.0006573,0,3853141,0 SPACEBEE-134,1 52180U 22033Z   23065.68238317  .00065730  00000-0  19509-2 0  9997,2 52180  97.3549 148.6396 0007878 173.7235 186.4108 15.34532902 51682,2022-033Z,52180,6840.445,93.84,467.699,456.921,1,
GENERATED VIA SPACETRACK.ORG API,18 SPCS,52180,SPACEBEE-134,PAYLOAD,U,22033Z,2023/3/7 4:53,780384,15.34622033,0.0007923,97.3547,149.1593,172.5679,187.5683,0,999,5174,0.0022858,0.00077363,0,3853520,0 SPACEBEE-134,1 52180U 22033Z   23066.20403681  .00077363  00000-0  22858-2 0  9990,2 52180  97.3547 149.1593 0007923 172.5679 187.5683 15.34622033 51747,2022-033Z,52180,6840.18,93.834,467.465,456.626,1,
GENERATED VIA SPACETRACK.ORG API,18 SPCS,52180,SPACEBEE-134,PAYLOAD,U,22033Z,2023/3/7 15:51,782016,15.34694445,0.0007805,97.3546,149.6147,171.4024,188.7354,0,999,5183,0.0024057,0.00081655,0,3854072,0 SPACEBEE-134,1 52180U 22033Z   23066.66046044  .00081655  00000-0  24057-2 0  9998,2 52180  97.3546 149.6147 0007805 171.4024 188.7354 15.34694445 51831,2022-033Z,52180,6839.965,93.83,467.169,456.492,1,
GENERATED VIA SPACETRACK.ORG API,18 SPCS,52180,SPACEBEE-134,PAYLOAD,U,22033Z,2023/3/8 4:22,143840,15.34772119,0.0007866,97.3546,150.1342,170.0301,190.1099,0,999,5191,0.0020239,0.00068738,0,3855077,0 SPACEBEE-134,1 52180U 22033Z   23067.18206185  .00068738  00000-0  20239-2 0  9995,2 52180  97.3546 150.1342 0007866 170.0301 190.1099 15.34772119 51912,2022-033Z,52180,6839.734,93.825,466.98,456.219,1,
GENERATED VIA SPACETRACK.ORG API,18 SPCS,52180,SPACEBEE-134,PAYLOAD,U,22033Z,2023/3/8 23:08,550176,15.34895179,0.0007811,97.3544,150.9145,167.258,192.8862,0,999,5201,0.0034408,0.00118131,0,3855087,0 SPACEBEE-134,1 52180U 22033Z   23067.96441609  .00118131  00000-0  34408-2 0  9999,2 52180  97.3544 150.9145 0007811 167.2580 192.8862 15.34895179 52017,2022-033Z,52180,6839.369,93.817,466.576,455.892,1,
GENERATED VIA SPACETRACK.ORG API,18 SPCS,52180,SPACEBEE-134,PAYLOAD,U,22033Z,2023/3/9 17:55,54528,15.35030757,0.0007728,97.3539,151.6952,164.5714,195.5766,0,999,5213,0.0027556,0.00094706,0,3855886,0 SPACEBEE-134,1 52180U 22033Z   23068.74670202  .00094706  00000-0  27556-2 0  9996,2 52180  97.3539 151.6952 0007728 164.5714 195.5766 15.35030757 52131,2022-033Z,52180,6838.966,93.809,466.116,455.546,1,
GENERATED VIA SPACETRACK.ORG API,18 SPCS,52180,SPACEBEE-134,PAYLOAD,U,22033Z,2023/3/9 17:55,54528,15.35030757,0.0007728,97.3539,151.6952,164.5714,195.5766,0,999,5215,0.0027556,0.00094706,0,3855951,0 SPACEBEE-134,1 52180U 22033Z   23068.74670202  .00094706  00000-0  27556-2 0  9996,2 52180  97.3539 151.6952 0007728 164.5714 195.5766 15.35030757 52153,2022-033Z,52180,6838.966,93.809,466.116,455.546,1,
GENERATED VIA SPACETRACK.ORG API,18 SPCS,52180,SPACEBEE-134,PAYLOAD,U,22033Z,2023/3/10 18:57,126688,15.35201599,0.0007666,97.353,152.7354,162.2966,197.8546,0,999,5229,0.0020474,0.00070505,0,3856948,0 SPACEBEE-134,1 52180U 22033Z   23069.78964267  .00070505  00000-0  20474-2 0  9991,2 52180  97.3530 152.7354 0007666 162.2966 197.8546 15.35201599 52297,2022-033Z,52180,6838.459,93.799,465.566,455.081,1,
GENERATED VIA SPACETRACK.ORG API,18 SPCS,52180,SPACEBEE-134,PAYLOAD,U,22033Z,2023/3/10 18:57,126688,15.35201599,0.0007666,97.353,152.7354,162.2966,197.8546,0,999,5231,0.0020474,0.00070505,0,3856975,0 SPACEBEE-134,1 52180U 22033Z   23069.78964267  .00070505  00000-0  20474-2 0  9991,2 52180  97.3530 152.7354 0007666 162.2966 197.8546 15.35201599 52310,2022-033Z,52180,6838.459,93.799,465.566,455.081,1,
GENERATED VIA SPACETRACK.ORG API,18 SPCS,52180,SPACEBEE-134,PAYLOAD,U,22033Z,2023/3/11 4:20,922016,15.35263212,0.0007695,97.3529,153.1252,161.1138,199.0392,0,999,5237,0.0021631,0.00074681,0,3857581,0 SPACEBEE-134,1 52180U 22033Z   23070.18071669  .00074681  00000-0  21631-2 0  9997,2 52180  97.3529 153.1252 0007695 161.1138 199.0392 15.35263212 52370,2022-033Z,52180,6838.276,93.795,465.403,454.879,1,
GENERATED VIA SPACETRACK.ORG API,18 SPCS,52180,SPACEBEE-134,PAYLOAD,U,22033Z,2023/3/11 4:20,922016,15.35263212,0.0007695,97.3529,153.1252,161.1138,199.0392,0,999,5235,0.0021631,0.00074681,0,3857819,0 SPACEBEE-134,1 52180U 22033Z   23070.18071669  .00074681  00000-0  21631-2 0  9997,2 52180  97.3529 153.1252 0007695 161.1138 199.0392 15.35263212 52358,2022-033Z,52180,6838.276,93.795,465.403,454.879,1,
GENERATED VIA SPACETRACK.ORG API,18 SPCS,52180,SPACEBEE-134,PAYLOAD,U,22033Z,2023/3/12 5:21,39360,15.35420722,0.0007618,97.3529,154.1661,157.1133,203.0452,0,999,5251,0.0021348,0.00074066,0,3858216,0 SPACEBEE-134,1 52180U 22033Z   23071.22350740  .00074066  00000-0  21348-2 0  9995,2 52180  97.3529 154.1661 0007618 157.1133 203.0452 15.35420722 52510,2022-033Z,52180,6837.808,93.785,464.882,454.464,1,
GENERATED VIA SPACETRACK.ORG API,18 SPCS,52180,SPACEBEE-134,PAYLOAD,U,22033Z,2023/3/12 5:21,39360,15.35420722,0.0007618,97.3529,154.1661,157.1133,203.0452,0,999,5253,0.0021348,0.00074066,0,3858534,0 SPACEBEE-134,1 52180U 22033Z   23071.22350740  .00074066  00000-0  21348-2 0  9995,2 52180  97.3529 154.1661 0007618 157.1133 203.0452 15.35420722 52532,2022-033Z,52180,6837.808,93.785,464.882,454.464,1,
GENERATED VIA SPACETRACK.ORG API,18 SPCS,52180,SPACEBEE-134,PAYLOAD,U,22033Z,2023/3/13 4:49,49024,15.35553506,0.0007575,97.3525,155.1419,154.3834,205.7786,0,999,5266,0.0016945,0.00058906,0,3858993,0 SPACEBEE-134,1 52180U 22033Z   23072.20103066  .00058906  00000-0  16945-2 0  9993,2 52180  97.3525 155.1419 0007575 154.3834 205.7786 15.35553506 52669,2022-033Z,52180,6837.414,93.777,464.458,454.1,1,
GENERATED VIA SPACETRACK.ORG API,18 SPCS,52180,SPACEBEE-134,PAYLOAD,U,22033Z,2023/3/13 4:49,49024,15.35553506,0.0007575,97.3525,155.1419,154.3834,205.7786,0,999,5268,0.0016945,0.00058906,0,3859425,0 SPACEBEE-134,1 52180U 22033Z   23072.20103066  .00058906  00000-0  16945-2 0  9993,2 52180  97.3525 155.1419 0007575 154.3834 205.7786 15.35553506 52681,2022-033Z,52180,6837.414,93.777,464.458,454.1,1,
GENERATED VIA SPACETRACK.ORG API,18 SPCS,52180,SPACEBEE-134,PAYLOAD,U,22033Z,2023/3/14 12:06,166464,15.35712586,0.0007519,97.3524,156.4433,149.7205,210.4475,0,999,5286,0.002113,0.00073991,0,3860321,0 SPACEBEE-134,1 52180U 22033Z   23073.50427276  .00073991  00000-0  21130-2 0  9992,2 52180  97.3524 156.4433 0007519 149.7205 210.4475 15.35712586 52861,2022-033Z,52180,6836.942,93.768,463.947,453.666,1,
GENERATED VIA SPACETRACK.ORG API,18 SPCS,52180,SPACEBEE-134,PAYLOAD,U,22033Z,2023/3/14 12:06,166464,15.35712586,0.0007519,97.3524,156.4433,149.7205,210.4475,0,999,5288,0.002113,0.00073991,0,3860373,0 SPACEBEE-134,1 52180U 22033Z   23073.50427276  .00073991  00000-0  21130-2 0  9992,2 52180  97.3524 156.4433 0007519 149.7205 210.4475 15.35712586 52883,2022-033Z,52180,6836.942,93.768,463.947,453.666,1,
